NORAD_CAT_ID,OBJECT_NAME,OBJECT_TYPE,EPOCH,MEAN_MOTION,ECCENTRICITY,INCLINATION,RA_OF_ASC_NODE,ARG_OF_PERICENTER,MEAN_ANOMALY,BSTAR,MEAN_MOTION_DOT,MEAN_MOTION_DDOT,TLE_LINE0,TLE_LINE1,TLE_LINE2,SEMIMAJOR_AXIS,PERIOD,APOGEE,PERIGEE,DECAYED
49744.0,STARLINK-3231,PAYLOAD,2024-06-03 05:52:32,15.08838502,0.0001274,53.2162,162.0398,86.5775,273.5363,0.00011133,1.484e-05,0.0,0 STARLINK-3231,1 49744U 21115W   24155.24481593  .00001484  00000-0  11133-3 0  9990,2 49744  53.2162 162.0398 0001274  86.5775 273.5363 15.08838502139350,6917.885,95.438,540.631,538.869,0.0
49744.0,STARLINK-3231,PAYLOAD,2024-06-03 07:27:55,15.08839851,0.0001262,53.2161,161.7427,85.7792,274.3345,0.00012151,1.646e-05,0.0,0 STARLINK-3231,1 49744U 21115W   24155.31105501  .00001646  00000-0  12151-3 0  9991,2 49744  53.2161 161.7427 0001262  85.7792 274.3345 15.08839851138250,6917.881,95.438,540.619,538.873,0.0
49744.0,STARLINK-3231,PAYLOAD,2024-06-03 17:00:13,15.0884334,0.0001268,53.2163,159.9587,85.3837,274.73,0.00013046,1.789e-05,0.0,0 STARLINK-3231,1 49744U 21115W   24155.70849322  .00001789  00000-0  13046-3 0  9992,2 49744  53.2163 159.9587 0001268  85.3837 274.7300 15.08843340138310,6917.87,95.437,540.612,538.858,0.0
49744.0,STARLINK-3231,PAYLOAD,2024-06-04 10:29:28,15.08841098,0.0001345,53.2172,156.6888,88.3671,271.7475,0.00012065,1.633e-05,0.0,0 STARLINK-3231,1 49744U 21115W   24156.43713638  .00001633  00000-0  12065-3 0  9991,2 49744  53.2172 156.6888 0001345  88.3671 271.7475 15.08841098139536,6917.877,95.437,540.672,538.812,0.0
49744.0,STARLINK-3231,PAYLOAD,2024-06-04 16:51:01,15.08842962,0.000136,53.2172,155.4994,88.7892,271.3256,0.00012714,1.736e-05,0.0,0 STARLINK-3231,1 49744U 21115W   24156.70209541  .00001736  00000-0  12714-3 0  9999,2 49744  53.2172 155.4994 0001360  88.7892 271.3256 15.08842962138462,6917.871,95.437,540.677,538.796,0.0
49744.0,STARLINK-3231,PAYLOAD,2024-06-05 08:44:52,15.08840834,0.0001405,53.2173,152.5262,90.6615,269.4538,6.6822e-05,7.76e-06,0.0,0 STARLINK-3231,1 49744U 21115W   24157.36449758  .00000776  00000-0  66822-4 0  9991,2 49744  53.2173 152.5262 0001405  90.6615 269.4538 15.08840834138562,6917.878,95.438,540.715,538.771,0.0
49744.0,STARLINK-3231,PAYLOAD,2024-06-05 16:41:48,15.08844797,0.0001424,53.2176,151.039,85.8414,274.2741,7.8951e-05,9.69e-06,0.0,0 STARLINK-3231,1 49744U 21115W   24157.69569469  .00000969  00000-0  78951-4 0  9999,2 49744  53.2176 151.0390 0001424  85.8414 274.2741 15.08844797139726,6917.866,95.437,540.716,538.746,0.0
49744.0,STARLINK-3231,PAYLOAD,2024-06-05 23:03:20,15.0884069,0.000148,53.2177,149.8499,86.1379,273.9782,7.1073e-05,8.43e-06,0.0,0 STARLINK-3231,1 49744U 21115W   24157.96065742  .00000843  00000-0  71073-4 0  9993,2 49744  53.2177 149.8499 0001480  86.1379 273.9782 15.08840690138658,6917.878,95.438,540.767,538.719,0.0
49744.0,STARLINK-3231,PAYLOAD,2024-06-06 05:24:53,15.08836413,0.0001508,53.2178,148.6603,85.7309,274.3855,1.9624e-05,2.4e-07,0.0,0 STARLINK-3231,1 49744U 21115W   24158.22562212  .00000024  00000-0  19624-4 0  9992,2 49744  53.2178 148.6603 0001508  85.7309 274.3855 15.08836413139804,6917.891,95.438,540.8,538.713,0.0
49744.0,STARLINK-3231,PAYLOAD,2024-06-06 07:00:16,15.08836844,0.0001473,53.2177,148.3629,85.389,274.727,1.7611e-05,-8e-08,0.0,0 STARLINK-3231,1 49744U 21115W   24158.29186181 -.00000008  00000-0  17611-4 0  9993,2 49744  53.2177 148.3629 0001473  85.3890 274.7270 15.08836844138701,6917.89,95.438,540.774,538.736,0.0
49744.0,STARLINK-3231,PAYLOAD,2024-06-06 16:32:35,15.08841575,0.0001529,53.218,146.5787,85.0033,275.1134,6.0153e-05,6.7e-06,0.0,0 STARLINK-3231,1 49744U 21115W   24158.68929818  .00000670  00000-0  60153-4 0  9991,2 49744  53.2180 146.5787 0001529  85.0033 275.1134 15.08841575139878,6917.876,95.437,540.798,538.683,0.0
49744.0,STARLINK-3231,PAYLOAD,2024-06-07 22:44:54,15.08841402,0.0001382,53.2168,140.9279,88.5758,271.5392,0.00012388,1.684e-05,0.0,0 STARLINK-3231,1 49744U 21115W   24159.94785529  .00001684  00000-0  12388-3 0  9992,2 49744  53.2168 140.9279 0001382  88.5758 271.5392 15.08841402138950,6917.876,95.437,540.697,538.785,0.0
49744.0,STARLINK-3231,PAYLOAD,2024-06-08 05:06:27,15.08844814,0.0001281,53.2165,139.737,95.39,264.7238,0.00011305,1.512e-05,0.0,0 STARLINK-3231,1 49744U 21115W   24160.21281301  .00001512  00000-0  11305-3 0  9991,2 49744  53.2165 139.7370 0001281  95.3900 264.7238 15.08844814140101,6917.866,95.437,540.617,538.844,0.0
49744.0,STARLINK-3231,PAYLOAD,2024-06-08 08:17:13,15.08845291,0.0001283,53.2165,139.1424,95.2547,264.8592,0.0001149,1.541e-05,0.0,0 STARLINK-3231,1 49744U 21115W   24160.34529251  .00001541  00000-0  11490-3 0  9991,2 49744  53.2165 139.1424 0001283  95.2547 264.8592 15.08845291139015,6917.864,95.437,540.617,538.842,0.0
49744.0,STARLINK-3231,PAYLOAD,2024-06-08 22:35:41,15.08841083,0.0001567,53.2174,136.4658,102.3628,257.754,5.1393e-05,5.3e-06,0.0,0 STARLINK-3231,1 49744U 21115W   24160.94145614  .00000530  00000-0  51393-4 0  9998,2 49744  53.2174 136.4658 0001567 102.3628 257.7540 15.08841083139108,6917.877,95.437,540.826,538.658,0.0
49744.0,STARLINK-3231,PAYLOAD,2024-06-09 04:57:14,15.08837304,0.0001382,53.2174,135.2791,94.2009,265.9141,-2.1529e-05,-6.31e-06,0.0,0 STARLINK-3231,1 49744U 21115W   24161.20642055 -.00000631  00000-0 -21529-4 0  9991,2 49744  53.2174 135.2791 0001382  94.2009 265.9141 15.08837304140257,6917.889,95.438,540.71,538.798,0.0
49744.0,STARLINK-3231,PAYLOAD,2024-06-09 08:08:00,15.08838626,0.0001488,53.2172,134.6837,96.1253,263.9909,-1.6173e-05,-5.45e-06,0.0,0 STARLINK-3231,1 49744U 21115W   24161.33889972 -.00000545  00000-0 -16173-4 0  9999,2 49744  53.2172 134.6837 0001488  96.1253 263.9909 15.08838626139164,6917.885,95.438,540.779,538.72,0.0
49744.0,STARLINK-3231,PAYLOAD,2024-06-10 14:20:20,15.08839935,0.0001471,53.2179,129.0326,96.2565,263.8595,1.6671e-05,-2.3e-07,0.0,0 STARLINK-3231,1 49744U 21115W   24162.59745977 -.00000023  00000-0  16671-4 0  9997,2 49744  53.2179 129.0326 0001471  96.2565 263.8595 15.08839935139356,6917.881,95.438,540.763,538.728,0.0
49744.0,STARLINK-3231,PAYLOAD,2024-06-11 04:38:49,15.08832414,0.0001323,53.2185,126.3606,88.8901,271.2242,6.8107e-05,7.96e-06,0.0,0 STARLINK-3231,1 49744U 21115W   24163.19362631  .00000796  00000-0  68107-4 0  9993,2 49744  53.2185 126.3606 0001323  88.8901 271.2242 15.08832414140552,6917.904,95.438,540.684,538.853,0.0
49744.0,STARLINK-3231,PAYLOAD,2024-06-12 06:04:59,15.08828152,0.0001455,53.2186,121.6032,103.2432,256.8722,0.0001256,1.711e-05,0.0,0 STARLINK-3231,1 49744U 21115W   24164.25347150  .00001711  00000-0  12560-3 0  9999,2 49744  53.2186 121.6032 0001455 103.2432 256.8722 15.08828152140715,6917.917,95.438,540.788,538.775,0.0
49744.0,STARLINK-3231,PAYLOAD,2024-06-13 04:20:23,15.08839244,0.0001304,53.2173,117.4381,97.0528,263.0613,6.2734e-05,7.11e-06,0.0,0 STARLINK-3231,1 49744U 21115W   24165.18082947  .00000711  00000-0  62734-4 0  9990,2 49744  53.2173 117.4381 0001304  97.0528 263.0613 15.08839244140858,6917.883,95.438,540.65,538.846,0.0
49744.0,STARLINK-3231,PAYLOAD,2024-06-13 13:52:41,15.08845842,0.0001298,53.2173,115.6511,78.1991,281.9147,0.00012597,1.718e-05,0.0,0 STARLINK-3231,1 49744U 21115W   24165.57826309  .00001718  00000-0  12597-3 0  9990,2 49744  53.2173 115.6511 0001298  78.1991 281.9147 15.08845842139804,6917.863,95.437,540.625,538.83,0.0
49744.0,STARLINK-3231,PAYLOAD,2024-06-14 13:43:29,15.08845898,0.0001414,53.2178,111.194,83.405,276.7103,0.00011195,1.494e-05,0.0,0 STARLINK-3231,1 49744U 21115W   24166.57186394  .00001494  00000-0  11195-3 0  9998,2 49744  53.2178 111.1940 0001414  83.4050 276.7103 15.08845898139952,6917.862,95.437,540.706,538.749,0.0
49744.0,STARLINK-3231,PAYLOAD,2024-06-14 20:05:01,15.08843874,0.0001434,53.218,110.0054,86.3451,273.7705,4.1236e-05,3.68e-06,0.0,0 STARLINK-3231,1 49744U 21115W   24166.83682756  .00000368  00000-0  41236-4 0  9999,2 49744  53.2180 110.0054 0001434  86.3451 273.7705 15.08843874139999,6917.869,95.437,540.726,538.742,0.0
49744.0,STARLINK-3231,PAYLOAD,2024-06-15 13:34:15,15.08853617,0.0001447,53.218,106.7302,90.7069,269.4089,6.9644e-05,8.21e-06,0.0,0 STARLINK-3231,1 49744U 21115W   24167.56545735  .00000821  00000-0  69644-4 0  9992,2 49744  53.2180 106.7302 0001447  90.7069 269.4089 15.08853617140103,6917.839,95.437,540.705,538.703,0.0
49744.0,STARLINK-3231,PAYLOAD,2024-06-16 05:28:07,15.08840402,0.0001511,53.2185,103.7564,94.3409,265.7756,-1.2871e-05,-4.93e-06,0.0,0 STARLINK-3231,1 49744U 21115W   24168.22786802 -.00000493  00000-0 -12871-4 0  9995,2 49744  53.2185 103.7564 0001511  94.3409 265.7756 15.08840402140204,6917.879,95.438,540.789,538.699,0.0
49744.0,STARLINK-3231,PAYLOAD,2024-06-16 22:57:22,15.08835401,0.0001498,53.2166,100.4862,94.37,265.7464,1.9383e-05,2e-07,0.0,0 STARLINK-3231,1 49744U 21115W   24168.95651050  .00000020  00000-0  19383-4 0  9990,2 49744  53.2166 100.4862 0001498  94.3700 265.7464 15.08835401140317,6917.894,95.438,540.796,538.723,0.0
49744.0,STARLINK-3231,PAYLOAD,2024-06-17 22:48:09,15.08831797,0.0001527,53.2196,96.025,96.9,263.2166,5.7337e-05,6.24e-06,0.0,0 STARLINK-3231,1 49744U 21115W   24169.95011405  .00000624  00000-0  57337-4 0  9996,2 49744  53.2196  96.0250 0001527  96.9000 263.2166 15.08831797140467,6917.905,95.438,540.827,538.714,0.0
49744.0,STARLINK-3231,PAYLOAD,2024-06-18 11:31:14,15.0884395,0.0001331,53.219,93.6496,89.4215,270.693,8.4099e-05,1.051e-05,0.0,0 STARLINK-3231,1 49744U 21115W   24170.48002682  .00001051  00000-0  84099-4 0  9993,2 49744  53.2190  93.6496 0001331  89.4215 270.6930 15.08843950141651,6917.868,95.437,540.654,538.813,0.0
49744.0,STARLINK-3231,PAYLOAD,2024-06-18 19:28:10,15.08836046,0.0001778,53.2182,92.1616,83.8726,276.2469,7.361e-05,8.83e-06,0.0,0 STARLINK-3231,1 49744U 21115W   24170.81123420  .00000883  00000-0  73610-4 0  9993,2 49744  53.2182  92.1616 0001778  83.8726 276.2469 15.08836046141703,6917.892,95.438,540.987,538.527,0.0
